CTC2_L_00564001-01
1 10000U 25710WG  26075.70049769  .00000000  00000+0  00000-0 0  9997
2 10000  99.3000   0.0000 0000000   0.0000   0.0000 13.78278225    10
CTC2_L_00564002-01
1 10001U 26488ZB  26075.70049769  .00000000  00000+0  00000-0 0  9991
2 10001  99.3000  12.0000 0000000   0.0000  48.0000 13.78278225    16
CTC2_L_00564003-01
1 10002U 24421AY  26075.70049769  .00000000  00000+0  00000-0 0  9997
2 10002  99.3000  24.0000 0000000   0.0000  96.0000 13.78278225    13
CTC2_L_00564004-01
1 10003U 22063HF  26075.70049769  .00000000  00000+0  00000-0 0  9998
2 10003  99.3000  36.0000 0000000   0.0000 144.0000 13.78278225    11
CTC2_L_00564005-01
1 10004U 23292KK  26075.70049769  .00000000  00000+0  00000-0 0  9994
2 10004  99.3000  48.0000 0000000   0.0000 192.0000 13.78278225    18
CTC2_L_00564006-01
1 10005U 24118IK  26075.70049769  .00000000  00000+0  00000-0 0  9993
2 10005  99.3000  60.0000 0000000   0.0000 240.0000 13.78278225    17
CTC2_L_00564007-01
1 10006U 26152PZ  26075.70049769  .00000000  00000+0  00000-0 0  9994
2 10006  99.3000  72.0000 0000000   0.0000 288.0000 13.78278225    13
CTC2_L_00564008-01
1 10007U 24584IX  26075.70049769  .00000000  00000+0  00000-0 0  9992
2 10007  99.3000  84.0000 0000000   0.0000 336.0000 13.78278225    11
CTC2_L_00564009-01
1 10008U 24494ZW  26075.70049769  .00000000  00000+0  00000-0 0  9993
2 10008  99.3000  96.0000 0000000   0.0000  24.0000 13.78278225    19
CTC2_L_00564010-01
1 10009U 22833FW  26075.70049769  .00000000  00000+0  00000-0 0  9999
2 10009  99.3000 108.0000 0000000   0.0000  72.0000 13.78278225    17
CTC2_L_00564011-01
1 10010U 22351QN  26075.70049769  .00000000  00000+0  00000-0 0  9996
2 10010  99.3000 120.0000 0000000   0.0000 120.0000 13.78278225    17
CTC2_L_00564012-01
1 10011U 23998FA  26075.70049769  .00000000  00000+0  00000-0 0  9995
2 10011  99.3000 132.0000 0000000   0.0000 168.0000 13.78278225    13
CTC2_L_00564013-01
1 10012U 26023HL  26075.70049769  .00000000  00000+0  00000-0 0  9998
2 10012  99.3000 144.0000 0000000   0.0000 216.0000 13.78278225    11
CTC2_L_00564014-01
1 10013U 26795AY  26075.70049769  .00000000  00000+0  00000-0 0  9995
2 10013  99.3000 156.0000 0000000   0.0000 264.0000 13.78278225    18
CTC2_L_00564015-01
1 10014U 23910MG  26075.70049769  .00000000  00000+0  00000-0 0  9992
2 10014  99.3000 168.0000 0000000   0.0000 312.0000 13.78278225    16
CTC2_L_00564016-01
1 10015U 23841NO  26075.70049769  .00000000  00000+0  00000-0 0  9996
2 10015  99.3000 180.0000 0000000   0.0000   0.0000 13.78278225    15
CTC2_L_00564017-01
1 10016U 22669UJ  26075.70049769  .00000000  00000+0  00000-0 0  9994
2 10016  99.3000 192.0000 0000000   0.0000  48.0000 13.78278225    11
CTC2_L_00564018-01
1 10017U 22215QD  26075.70049769  .00000000  00000+0  00000-0 0  9992
2 10017  99.3000 204.0000 0000000   0.0000  96.0000 13.78278225    19
CTC2_L_00564019-01
1 10018U 25669QP  26075.70049769  .00000000  00000+0  00000-0 0  9999
2 10018  99.3000 216.0000 0000000   0.0000 144.0000 13.78278225    17
CTC2_L_00564020-01
1 10019U 22518OV  26075.70049769  .00000000  00000+0  00000-0 0  9990
2 10019  99.3000 228.0000 0000000   0.0000 192.0000 13.78278225    14
CTC2_L_00564021-01
1 10020U 26682SW  26075.70049769  .00000000  00000+0  00000-0 0  9998
2 10020  99.3000 240.0000 0000000   0.0000 240.0000 13.78278225    14
CTC2_L_00564022-01
1 10021U 26113NR  26075.70049769  .00000000  00000+0  00000-0 0  9998
2 10021  99.3000 252.0000 0000000   0.0000 288.0000 13.78278225    10
CTC2_L_00564023-01
1 10022U 23306TL  26075.70049769  .00000000  00000+0  00000-0 0  9990
2 10022  99.3000 264.0000 0000000   0.0000 336.0000 13.78278225    18
CTC2_L_00564024-01
1 10023U 25509XQ  26075.70049769  .00000000  00000+0  00000-0 0  9998
2 10023  99.3000 276.0000 0000000   0.0000  24.0000 13.78278225    16
CTC2_L_00564025-01
1 10024U 25723KK  26075.70049769  .00000000  00000+0  00000-0 0  9997
2 10024  99.3000 288.0000 0000000   0.0000  72.0000 13.78278225    13
CTC2_L_00564026-01
1 10025U 23671PS  26075.70049769  .00000000  00000+0  00000-0 0  9998
2 10025  99.3000 300.0000 0000000   0.0000 120.0000 13.78278225    13
CTC2_L_00564027-01
1 10026U 22101ZQ  26075.70049769  .00000000  00000+0  00000-0 0  9996
2 10026  99.3000 312.0000 0000000   0.0000 168.0000 13.78278225    19
CTC2_L_00564028-01
1 10027U 24092CX  26075.70049769  .00000000  00000+0  00000-0 0  9998
2 10027  99.3000 324.0000 0000000   0.0000 216.0000 13.78278225    17
CTC2_L_00564029-01
1 10028U 22857OI  26075.70049769  .00000000  00000+0  00000-0 0  9996
2 10028  99.3000 336.0000 0000000   0.0000 264.0000 13.78278225    14
CTC2_L_00564030-01
1 10029U 23740EJ  26075.70049769  .00000000  00000+0  00000-0 0  9999
2 10029  99.3000 348.0000 0000000   0.0000 312.0000 13.78278225    12
